[{"OBJECT_NAME":"OBJECT E","OBJECT_ID":"2024-092E","EPOCH":"2026-03-09T21:25:47.709120","MEAN_MOTION":15.32997986,"ECCENTRICITY":0.0008531,"INCLINATION":97.642,"RA_OF_ASC_NODE":198.2099,"ARG_OF_PERICENTER":142.2606,"MEAN_ANOMALY":217.9236,"EPHEMERIS_TYPE":0,"CLASSIFICATION_TYPE":"U","NORAD_CAT_ID":59777,"ELEMENT_SET_NO":999,"REV_AT_EPOCH":10051,"BSTAR":0.00078641119,"MEAN_MOTION_DOT":0.00025066,"MEAN_MOTION_DDOT":0},{"OBJECT_NAME":"STARLINK-35587","OBJECT_ID":"2025-240N","EPOCH":"2026-03-09T23:47:42.279648","MEAN_MOTION":15.3021366,"ECCENTRICITY":0.00015423,"INCLINATION":53.1598,"RA_OF_ASC_NODE":61.4798,"ARG_OF_PERICENTER":97.6105,"MEAN_ANOMALY":262.5071,"EPHEMERIS_TYPE":0,"CLASSIFICATION_TYPE":"U","NORAD_CAT_ID":66158,"ELEMENT_SET_NO":999,"REV_AT_EPOCH":2203,"BSTAR":0.0011147196,"MEAN_MOTION_DOT":0.00032816,"MEAN_MOTION_DDOT":0}]
